{
  "type": "FeatureCollection",
  "features": [
    {
      "type": "Feature",
      "properties": {
        "norad_id": 66568,
        "name": "STARLINK-35803",
        "group": "last-30-days",
        "lat": -42.92282723263373,
        "lon": -43.541626331597165,
        "alt_km": 407.583844708588,
        "timestamp": "2025-12-24T20:42:19.743525+00:00",
        "meta_object_name": "STARLINK-35803",
        "meta_object_id": "2025-268M",
        "meta_epoch": "2025-12-24T08:00:03.000384",
        "meta_mean_motion": 15.56009654,
        "meta_eccentricity": 9.213e-05,
        "meta_inclination": 43.0001,
        "meta_ra_of_asc_node": 53.1863,
        "meta_arg_of_pericenter": 258.9667,
        "meta_mean_anomaly": 281.5169,
        "meta_ephemeris_type": 0,
        "meta_classification_type": "U",
        "meta_norad_cat_id": 66568,
        "meta_element_set_no": 999,
        "meta_rev_at_epoch": 604,
        "meta_bstar": -0.028201284,
        "meta_mean_motion_dot": -0.01792034,
        "meta_mean_motion_ddot": 0,
        "tle_line1": "1 66568U 25268M   25358.33336806 -.01792034  00000+0 -28201-1 0  9990",
        "tle_line2": "2 66568  43.0001  53.1863 0000921 258.9667 281.5169 15.56009654  6045"
      },
      "geometry": {
        "type": "Point",
        "coordinates": [
          -43.541626331597165,
          -42.92282723263373
        ]
      }
    },
    {
      "type": "Feature",
      "properties": {
        "norad_id": 66569,
        "name": "STARLINK-35835",
        "group": "last-30-days",
        "lat": -38.3351315534548,
        "lon": -8.054532105478948,
        "alt_km": 402.96718337608854,
        "timestamp": "2025-12-24T20:42:19.743535+00:00",
        "meta_object_name": "STARLINK-35835",
        "meta_object_id": "2025-268N",
        "meta_epoch": "2025-12-24T08:00:03.000384",
        "meta_mean_motion": 15.56803293,
        "meta_eccentricity": 0.00013627,
        "meta_inclination": 43.0003,
        "meta_ra_of_asc_node": 53.1253,
        "meta_arg_of_pericenter": 271.5115,
        "meta_mean_anomaly": 293.9884,
        "meta_ephemeris_type": 0,
        "meta_classification_type": "U",
        "meta_norad_cat_id": 66569,
        "meta_element_set_no": 999,
        "meta_rev_at_epoch": 610,
        "meta_bstar": -0.018045553,
        "meta_mean_motion_dot": -0.0119306,
        "meta_mean_motion_ddot": 0,
        "tle_line1": "1 66569U 25268N   25358.33336806 -.01193060  00000+0 -18046-1 0  9991",
        "tle_line2": "2 66569  43.0003  53.1253 0001362 271.5115 293.9884 15.56803293  6109"
      },
      "geometry": {
        "type": "Point",
        "coordinates": [
          -8.054532105478948,
          -38.3351315534548
        ]
      }
    },
    {
      "type": "Feature",
      "properties": {
        "norad_id": 66570,
        "name": "STARLINK-35834",
        "group": "last-30-days",
        "lat": -9.695509757415097,
        "lon": -119.18638796927435,
        "alt_km": 445.87598119111044,
        "timestamp": "2025-12-24T20:42:19.743546+00:00",
        "meta_object_name": "STARLINK-35834",
        "meta_object_id": "2025-268P",
        "meta_epoch": "2025-12-24T08:00:03.000384",
        "meta_mean_motion": 15.42770845,
        "meta_eccentricity": 0.00014517,
        "meta_inclination": 43,
        "meta_ra_of_asc_node": 53.304,
        "meta_arg_of_pericenter": 286.8597,
        "meta_mean_anomaly": 206.0899,
        "meta_ephemeris_type": 0,
        "meta_classification_type": "U",
        "meta_norad_cat_id": 66570,
        "meta_element_set_no": 999,
        "meta_rev_at_epoch": 604,
        "meta_bstar": -0.051423092,
        "meta_mean_motion_dot": -0.02045728,
        "meta_mean_motion_ddot": 0,
        "tle_line1": "1 66570U 25268P   25358.33336806 -.02045728  00000+0 -51423-1 0  9997",
        "tle_line2": "2 66570  43.0000  53.3040 0001451 286.8597 206.0899 15.42770845  6041"
      },
      "geometry": {
        "type": "Point",
        "coordinates": [
          -119.18638796927435,
          -9.695509757415097
        ]
      }
    },
    {
      "type": "Feature",
      "properties": {
        "norad_id": 66571,
        "name": "STARLINK-35836",
        "group": "last-30-days",
        "lat": -17.81680317146004,
        "lon": -109.60762677430998,
        "alt_km": 443.8736661179919,
        "timestamp": "2025-12-24T20:42:19.743559+00:00",
        "meta_object_name": "STARLINK-35836",
        "meta_object_id": "2025-268Q",
        "meta_epoch": "2025-12-24T08:00:03.000384",
        "meta_mean_motion": 15.43616759,
        "meta_eccentricity": 0.00014622,
        "meta_inclination": 43,
        "meta_ra_of_asc_node": 53.2762,
        "meta_arg_of_pericenter": 282.2143,
        "meta_mean_anomaly": 221.5147,
        "meta_ephemeris_type": 0,
        "meta_classification_type": "U",
        "meta_norad_cat_id": 66571,
        "meta_element_set_no": 999,
        "meta_rev_at_epoch": 604,
        "meta_bstar": -0.050544074,
        "meta_mean_motion_dot": -0.02066927,
        "meta_mean_motion_ddot": 0,
        "tle_line1": "1 66571U 25268Q   25358.33336806 -.02066927  00000+0 -50544-1 0  9995",
        "tle_line2": "2 66571  43.0000  53.2762 0001462 282.2143 221.5147 15.43616759  6043"
      },
      "geometry": {
        "type": "Point",
        "coordinates": [
          -109.60762677430998,
          -17.81680317146004
        ]
      }
    },
    {
      "type": "Feature",
      "properties": {
        "norad_id": 66572,
        "name": "STARLINK-35870",
        "group": "last-30-days",
        "lat": -29.02711871625926,
        "lon": -93.27859970876877,
        "alt_km": 440.1811233567132,
        "timestamp": "2025-12-24T20:42:19.743569+00:00",
        "meta_object_name": "STARLINK-35870",
        "meta_object_id": "2025-268R",
        "meta_epoch": "2025-12-24T08:00:03.000384",
        "meta_mean_motion": 15.45067276,
        "meta_eccentricity": 0.00012616,
        "meta_inclination": 43,
        "meta_ra_of_asc_node": 53.2381,
        "meta_arg_of_pericenter": 283.7842,
        "meta_mean_anomaly": 235.8941,
        "meta_ephemeris_type": 0,
        "meta_classification_type": "U",
        "meta_norad_cat_id": 66572,
        "meta_element_set_no": 999,
        "meta_rev_at_epoch": 610,
        "meta_bstar": -0.048128995,
        "meta_mean_motion_dot": -0.02068464,
        "meta_mean_motion_ddot": 0,
        "tle_line1": "1 66572U 25268R   25358.33336806 -.02068464  00000+0 -48129-1 0  9990",
        "tle_line2": "2 66572  43.0000  53.2381 0001261 283.7842 235.8941 15.45067276  6103"
      },
      "geometry": {
        "type": "Point",
        "coordinates": [
          -93.27859970876877,
          -29.02711871625926
        ]
      }
    },
    {
      "type": "Feature",
      "properties": {
        "norad_id": 66573,
        "name": "STARLINK-35650",
        "group": "last-30-days",
        "lat": -41.27149696983073,
        "lon": -59.56488404422187,
        "alt_km": 417.15468531376064,
        "timestamp": "2025-12-24T20:42:19.743580+00:00",
        "meta_object_name": "STARLINK-35650",
        "meta_object_id": "2025-268S",
        "meta_epoch": "2025-12-23T11:08:29.992128",
        "meta_mean_motion": 15.50365619,
        "meta_eccentricity": 0.0004817,
        "meta_inclination": 43.0033,
        "meta_ra_of_asc_node": 58.2732,
        "meta_arg_of_pericenter": 315.3738,
        "meta_mean_anomaly": 44.6734,
        "meta_ephemeris_type": 0,
        "meta_classification_type": "U",
        "meta_norad_cat_id": 66573,
        "meta_element_set_no": 999,
        "meta_rev_at_epoch": 629,
        "meta_bstar": 0.0013458911,
        "meta_mean_motion_dot": 0.00078839,
        "meta_mean_motion_ddot": 0,
        "tle_line1": "1 66573U 25268S   25357.46423602  .00078839  00000+0  13459-2 0  9997",
        "tle_line2": "2 66573  43.0033  58.2732 0004817 315.3738  44.6734 15.50365619  6295"
      },
      "geometry": {
        "type": "Point",
        "coordinates": [
          -59.56488404422187,
          -41.27149696983073
        ]
      }
    },
    {
      "type": "Feature",
      "properties": {
        "norad_id": 66574,
        "name": "STARLINK-35812",
        "group": "last-30-days",
        "lat": -38.688358881093954,
        "lon": -70.63324312058755,
        "alt_km": 435.699708502616,
        "timestamp": "2025-12-24T20:42:19.743590+00:00",
        "meta_object_name": "STARLINK-35812",
        "meta_object_id": "2025-268T",
        "meta_epoch": "2025-12-24T08:00:03.000384",
        "meta_mean_motion": 15.46733449,
        "meta_eccentricity": 9.631e-05,
        "meta_inclination": 43.0002,
        "meta_ra_of_asc_node": 53.1935,
        "meta_arg_of_pericenter": 281.4547,
        "meta_mean_anomaly": 256.1612,
        "meta_ephemeris_type": 0,
        "meta_classification_type": "U",
        "meta_norad_cat_id": 66574,
        "meta_element_set_no": 999,
        "meta_rev_at_epoch": 610,
        "meta_bstar": -0.045486617,
        "meta_mean_motion_dot": -0.02070941,
        "meta_mean_motion_ddot": 0,
        "tle_line1": "1 66574U 25268T   25358.33336806 -.02070941  00000+0 -45487-1 0  9999",
        "tle_line2": "2 66574  43.0002  53.1935 0000963 281.4547 256.1612 15.46733449  6100"
      },
      "geometry": {
        "type": "Point",
        "coordinates": [
          -70.63324312058755,
          -38.688358881093954
        ]
      }
    }
  ]
}